STARLINK-30140          
1 57458U 23107B   23258.58334491 -.00014509  00000+0 -10609-2 0  9997
2 57458  43.0001 222.7230 0000479 261.5741 285.2926 15.02546567  5845
STARLINK-30185          
1 57459U 23107C   23258.28030712  .00002400  00000+0  18311-3 0  9998
2 57459  42.9997 224.3369 0000769 273.4939  86.5816 15.04500883  8747
STARLINK-30077          
1 57460U 23107D   23258.40923143  .00017996  00000+0  13435-2 0  9990
2 57460  42.9992 223.5833 0001226 249.9526 110.1184 15.02545499  8775
STARLINK-30229          
1 57461U 23107E   23258.27538817  .00000174  00000+0  26774-4 0  9998
2 57461  43.0005 224.2960 0000980 256.3043 103.7691 15.04495639  8766
STARLINK-30088          
1 57462U 23107F   23258.27313266 -.00018402  00000+0 -12870-2 0  9993
2 57462  42.9973 224.2831 0002059 341.6174  18.4594 15.04340028  8763
STARLINK-30091          
1 57463U 23107G   23258.58334491 -.00023231  00000+0 -17100-2 0  9998
2 57463  43.0001 222.5059 0001872 258.3277  18.7081 15.02541681  5915
STARLINK-30115          
1 57464U 23107H   23258.79480245 -.00259693  00000+0 -19611-1 0  9992
2 57464  42.9998 221.3141 0001151 251.4159 108.6558 15.03140812  8824
STARLINK-30116          
1 57465U 23107J   23258.33425033 -.00051456  00000+0 -36664-2 0  9992
2 57465  42.9997 223.8795 0002152 241.1537 118.9090 15.04091638  8775
STARLINK-30156          
1 57466U 23107K   23258.83334491  .00305711  00000+0  15572-2 0  9994
2 57466  43.0013 203.7274 0022201 172.5535  32.0686 15.79428839  9023
STARLINK-30092          
1 57467U 23107L   23258.32719341  .00001720  00000+0  13539-3 0  9995
2 57467  42.9974 223.8278 0000527 297.1307  62.9482 15.04486154  8772
STARLINK-30039          
1 57468U 23107M   23258.58334491 -.00015599  00000+0 -11419-2 0  9998
2 57468  43.0002 222.3756 0000776 259.4590  71.6659 15.02548128  5748
STARLINK-30171          
1 57469U 23107N   23258.32121045  .00004265  00000+0  31413-3 0  9993
2 57469  42.9965 223.7814 0000506 302.0161  58.0633 15.04486327  8776
STARLINK-30186          
1 57470U 23107P   23258.31971637 -.00013415  00000+0 -93186-3 0  9998
2 57470  43.0009 223.7703 0003802 227.9715 132.0805 15.04401993  8778
STARLINK-30190          
1 57471U 23107Q   23258.30612900  .00007298  00000+0  55458-3 0  9993
2 57471  42.9994 223.6670 0000878 269.9830  90.0911 15.02546409  8755
STARLINK-30204          
1 57472U 23107R   23258.31432942  .00002323  00000+0  17770-3 0  9990
2 57472  42.9996 223.7299 0001195 282.6613  77.4097 15.04497487  8779
STARLINK-30187          
1 57473U 23107S   23258.30501753  .00000473  00000+0  50090-4 0  9994
2 57473  42.9999 223.6510 0001260 247.3723 112.6987 15.02533692  8778
STARLINK-30110          
1 57474U 23107T   23258.30400079  .00001714  00000+0  13502-3 0  9999
2 57474  42.9985 223.6514 0001214 250.1626 109.9086 15.04486484  8778
