[{"OBJECT_NAME":"STARLINK-30140","OBJECT_ID":"2023-107B","EPOCH":"2023-09-15T14:00:01.000224","MEAN_MOTION":15.02546567,"ECCENTRICITY":4.79e-5,"INCLINATION":43.0001,"RA_OF_ASC_NODE":222.723,"ARG_OF_PERICENTER":261.5741,"MEAN_ANOMALY":285.2926,"EPHEMERIS_TYPE":0,"CLASSIFICATION_TYPE":"U","NORAD_CAT_ID":57458,"ELEMENT_SET_NO":999,"REV_AT_EPOCH":584,"BSTAR":-0.0010609,"MEAN_MOTION_DOT":-0.00014509,"MEAN_MOTION_DDOT":0},{"OBJECT_NAME":"STARLINK-30185","OBJECT_ID":"2023-107C","EPOCH":"2023-09-15T06:43:38.535168","MEAN_MOTION":15.04500883,"ECCENTRICITY":7.69e-5,"INCLINATION":42.9997,"RA_OF_ASC_NODE":224.3369,"ARG_OF_PERICENTER":273.4939,"MEAN_ANOMALY":86.5816,"EPHEMERIS_TYPE":0,"CLASSIFICATION_TYPE":"U","NORAD_CAT_ID":57459,"ELEMENT_SET_NO":999,"REV_AT_EPOCH":874,"BSTAR":0.00018311,"MEAN_MOTION_DOT":2.4e-5,"MEAN_MOTION_DDOT":0},{"OBJECT_NAME":"STARLINK-30077","OBJECT_ID":"2023-107D","EPOCH":"2023-09-15T09:49:17.595552","MEAN_MOTION":15.02545499,"ECCENTRICITY":0.0001226,"INCLINATION":42.9992,"RA_OF_ASC_NODE":223.5833,"ARG_OF_PERICENTER":249.9526,"MEAN_ANOMALY":110.1184,"EPHEMERIS_TYPE":0,"CLASSIFICATION_TYPE":"U","NORAD_CAT_ID":57460,"ELEMENT_SET_NO":999,"REV_AT_EPOCH":877,"BSTAR":0.0013435,"MEAN_MOTION_DOT":0.00017996,"MEAN_MOTION_DDOT":0},{"OBJECT_NAME":"STARLINK-30229","OBJECT_ID":"2023-107E","EPOCH":"2023-09-15T06:36:33.537888","MEAN_MOTION":15.04495639,"ECCENTRICITY":9.8e-5,"INCLINATION":43.0005,"RA_OF_ASC_NODE":224.296,"ARG_OF_PERICENTER":256.3043,"MEAN_ANOMALY":103.7691,"EPHEMERIS_TYPE":0,"CLASSIFICATION_TYPE":"U","NORAD_CAT_ID":57461,"ELEMENT_SET_NO":999,"REV_AT_EPOCH":876,"BSTAR":2.6774e-5,"MEAN_MOTION_DOT":1.74e-6,"MEAN_MOTION_DDOT":0},{"OBJECT_NAME":"STARLINK-30088","OBJECT_ID":"2023-107F","EPOCH":"2023-09-15T06:33:18.661824","MEAN_MOTION":15.04340028,"ECCENTRICITY":0.0002059,"INCLINATION":42.9973,"RA_OF_ASC_NODE":224.2831,"ARG_OF_PERICENTER":341.6174,"MEAN_ANOMALY":18.4594,"EPHEMERIS_TYPE":0,"CLASSIFICATION_TYPE":"U","NORAD_CAT_ID":57462,"ELEMENT_SET_NO":999,"REV_AT_EPOCH":876,"BSTAR":-0.001287,"MEAN_MOTION_DOT":-0.00018402,"MEAN_MOTION_DDOT":0},{"OBJECT_NAME":"STARLINK-30091","OBJECT_ID":"2023-107G","EPOCH":"2023-09-15T14:00:01.000224","MEAN_MOTION":15.02541681,"ECCENTRICITY":0.0001872,"INCLINATION":43.0001,"RA_OF_ASC_NODE":222.5059,"ARG_OF_PERICENTER":258.3277,"MEAN_ANOMALY":18.7081,"EPHEMERIS_TYPE":0,"CLASSIFICATION_TYPE":"U","NORAD_CAT_ID":57463,"ELEMENT_SET_NO":999,"REV_AT_EPOCH":591,"BSTAR":-0.00171,"MEAN_MOTION_DOT":-0.00023231,"MEAN_MOTION_DDOT":0},{"OBJECT_NAME":"STARLINK-30115","OBJECT_ID":"2023-107H","EPOCH":"2023-09-15T19:04:30.931680","MEAN_MOTION":15.03140812,"ECCENTRICITY":0.0001151,"INCLINATION":42.9998,"RA_OF_ASC_NODE":221.3141,"ARG_OF_PERICENTER":251.4159,"MEAN_ANOMALY":108.6558,"EPHEMERIS_TYPE":0,"CLASSIFICATION_TYPE":"U","NORAD_CAT_ID":57464,"ELEMENT_SET_NO":999,"REV_AT_EPOCH":882,"BSTAR":-0.019611,"MEAN_MOTION_DOT":-0.00259693,"MEAN_MOTION_DDOT":0},{"OBJECT_NAME":"STARLINK-30116","OBJECT_ID":"2023-107J","EPOCH":"2023-09-15T08:01:19.228512","MEAN_MOTION":15.04091638,"ECCENTRICITY":0.0002152,"INCLINATION":42.9997,"RA_OF_ASC_NODE":223.8795,"ARG_OF_PERICENTER":241.1537,"MEAN_ANOMALY":118.909,"EPHEMERIS_TYPE":0,"CLASSIFICATION_TYPE":"U","NORAD_CAT_ID":57465,"ELEMENT_SET_NO":999,"REV_AT_EPOCH":877,"BSTAR":-0.0036664,"MEAN_MOTION_DOT":-0.00051456,"MEAN_MOTION_DDOT":0},{"OBJECT_NAME":"STARLINK-30156","OBJECT_ID":"2023-107K","EPOCH":"2023-09-15T20:00:01.000224","MEAN_MOTION":15.79428839,"ECCENTRICITY":0.0022201,"INCLINATION":43.0013,"RA_OF_ASC_NODE":203.7274,"ARG_OF_PERICENTER":172.5535,"MEAN_ANOMALY":32.0686,"EPHEMERIS_TYPE":0,"CLASSIFICATION_TYPE":"U","NORAD_CAT_ID":57466,"ELEMENT_SET_NO":999,"REV_AT_EPOCH":902,"BSTAR":0.0015572,"MEAN_MOTION_DOT":0.00305711,"MEAN_MOTION_DDOT":0},{"OBJECT_NAME":"STARLINK-30092","OBJECT_ID":"2023-107L","EPOCH":"2023-09-15T07:51:09.510624","MEAN_MOTION":15.04486154,"ECCENTRICITY":5.27e-5,"INCLINATION":42.9974,"RA_OF_ASC_NODE":223.8278,"ARG_OF_PERICENTER":297.1307,"MEAN_ANOMALY":62.9482,"EPHEMERIS_TYPE":0,"CLASSIFICATION_TYPE":"U","NORAD_CAT_ID":57467,"ELEMENT_SET_NO":999,"REV_AT_EPOCH":877,"BSTAR":0.00013539,"MEAN_MOTION_DOT":1.72e-5,"MEAN_MOTION_DDOT":0},{"OBJECT_NAME":"STARLINK-30039","OBJECT_ID":"2023-107M","EPOCH":"2023-09-15T14:00:01.000224","MEAN_MOTION":15.02548128,"ECCENTRICITY":7.76e-5,"INCLINATION":43.0002,"RA_OF_ASC_NODE":222.3756,"ARG_OF_PERICENTER":259.459,"MEAN_ANOMALY":71.6659,"EPHEMERIS_TYPE":0,"CLASSIFICATION_TYPE":"U","NORAD_CAT_ID":57468,"ELEMENT_SET_NO":999,"REV_AT_EPOCH":574,"BSTAR":-0.0011419,"MEAN_MOTION_DOT":-0.00015599,"MEAN_MOTION_DDOT":0},{"OBJECT_NAME":"STARLINK-30171","OBJECT_ID":"2023-107N","EPOCH":"2023-09-15T07:42:32.582880","MEAN_MOTION":15.04486327,"ECCENTRICITY":5.06e-5,"INCLINATION":42.9965,"RA_OF_ASC_NODE":223.7814,"ARG_OF_PERICENTER":302.0161,"MEAN_ANOMALY":58.0633,"EPHEMERIS_TYPE":0,"CLASSIFICATION_TYPE":"U","NORAD_CAT_ID":57469,"ELEMENT_SET_NO":999,"REV_AT_EPOCH":877,"BSTAR":0.00031413,"MEAN_MOTION_DOT":4.265e-5,"MEAN_MOTION_DDOT":0},{"OBJECT_NAME":"STARLINK-30186","OBJECT_ID":"2023-107P","EPOCH":"2023-09-15T07:40:23.494368","MEAN_MOTION":15.04401993,"ECCENTRICITY":0.0003802,"INCLINATION":43.0009,"RA_OF_ASC_NODE":223.7703,"ARG_OF_PERICENTER":227.9715,"MEAN_ANOMALY":132.0805,"EPHEMERIS_TYPE":0,"CLASSIFICATION_TYPE":"U","NORAD_CAT_ID":57470,"ELEMENT_SET_NO":999,"REV_AT_EPOCH":877,"BSTAR":-0.00093186,"MEAN_MOTION_DOT":-0.00013415,"MEAN_MOTION_DDOT":0},{"OBJECT_NAME":"STARLINK-30190","OBJECT_ID":"2023-107Q","EPOCH":"2023-09-15T07:20:49.545600","MEAN_MOTION":15.02546409,"ECCENTRICITY":8.78e-5,"INCLINATION":42.9994,"RA_OF_ASC_NODE":223.667,"ARG_OF_PERICENTER":269.983,"MEAN_ANOMALY":90.0911,"EPHEMERIS_TYPE":0,"CLASSIFICATION_TYPE":"U","NORAD_CAT_ID":57471,"ELEMENT_SET_NO":999,"REV_AT_EPOCH":875,"BSTAR":0.00055458,"MEAN_MOTION_DOT":7.298e-5,"MEAN_MOTION_DDOT":0},{"OBJECT_NAME":"STARLINK-30204","OBJECT_ID":"2023-107R","EPOCH":"2023-09-15T07:32:38.061888","MEAN_MOTION":15.04497487,"ECCENTRICITY":0.0001195,"INCLINATION":42.9996,"RA_OF_ASC_NODE":223.7299,"ARG_OF_PERICENTER":282.6613,"MEAN_ANOMALY":77.4097,"EPHEMERIS_TYPE":0,"CLASSIFICATION_TYPE":"U","NORAD_CAT_ID":57472,"ELEMENT_SET_NO":999,"REV_AT_EPOCH":877,"BSTAR":0.0001777,"MEAN_MOTION_DOT":2.323e-5,"MEAN_MOTION_DDOT":0},{"OBJECT_NAME":"STARLINK-30187","OBJECT_ID":"2023-107S","EPOCH":"2023-09-15T07:19:13.514592","MEAN_MOTION":15.02533692,"ECCENTRICITY":0.000126,"INCLINATION":42.9999,"RA_OF_ASC_NODE":223.651,"ARG_OF_PERICENTER":247.3723,"MEAN_ANOMALY":112.6987,"EPHEMERIS_TYPE":0,"CLASSIFICATION_TYPE":"U","NORAD_CAT_ID":57473,"ELEMENT_SET_NO":999,"REV_AT_EPOCH":877,"BSTAR":5.009e-5,"MEAN_MOTION_DOT":4.73e-6,"MEAN_MOTION_DDOT":0},{"OBJECT_NAME":"STARLINK-30110","OBJECT_ID":"2023-107T","EPOCH":"2023-09-15T07:17:45.668256","MEAN_MOTION":15.04486484,"ECCENTRICITY":0.0001214,"INCLINATION":42.9985,"RA_OF_ASC_NODE":223.6514,"ARG_OF_PERICENTER":250.1626,"MEAN_ANOMALY":109.9086,"EPHEMERIS_TYPE":0,"CLASSIFICATION_TYPE":"U","NORAD_CAT_ID":57474,"ELEMENT_SET_NO":999,"REV_AT_EPOCH":877,"BSTAR":0.00013502,"MEAN_MOTION_DOT":1.714e-5,"MEAN_MOTION_DDOT":0}]
